NORAD_CAT_ID,OBJECT_NAME,OBJECT_TYPE,EPOCH,MEAN_MOTION,ECCENTRICITY,INCLINATION,RA_OF_ASC_NODE,ARG_OF_PERICENTER,MEAN_ANOMALY,BSTAR,MEAN_MOTION_DOT,MEAN_MOTION_DDOT,TLE_LINE0,TLE_LINE1,TLE_LINE2,SEMIMAJOR_AXIS,PERIOD,APOGEE,PERIGEE,DECAYED
52102.0,STARLINK-3709,PAYLOAD,2023-12-21 11:24:34,15.08852595,0.0001417,53.2163,111.8265,68.0715,292.0428,-8.6483e-05,-1.665e-05,0.0,0 STARLINK-3709,1 52102U 22029Q   23355.47540220 -.00001665  00000-0 -86483-4 0  9990,2 52102  53.2163 111.8265 0001417  68.0715 292.0428 15.08852595 98626,6917.842,95.437,540.687,538.727,0.0
52102.0,STARLINK-3709,PAYLOAD,2023-12-21 14:35:20,15.08848198,0.0001382,53.2165,111.2312,73.7906,286.3238,0.0001025,1.344e-05,0.0,0 STARLINK-3709,1 52102U 22029Q   23355.60787867  .00001344  00000-0  10250-3 0  9995,2 52102  53.2165 111.2312 0001382  73.7906 286.3238 15.08848198 98642,6917.855,95.437,540.676,538.764,0.0
52102.0,STARLINK-3709,PAYLOAD,2023-12-22 11:15:22,15.08839196,0.0001434,53.2176,107.3628,99.337,260.7785,7.5084e-05,9.07e-06,0.0,0 STARLINK-3709,1 52102U 22029Q   23356.46900661  .00000907  00000-0  75084-4 0  9990,2 52102  53.2176 107.3628 0001434  99.3370 260.7785 15.08839196 98772,6917.883,95.438,540.74,538.756,0.0
52102.0,STARLINK-3709,PAYLOAD,2023-12-22 14:26:08,15.08841601,0.0001309,53.2171,106.7686,92.0934,268.0208,9.7663e-05,1.267e-05,0.0,0 STARLINK-3709,1 52102U 22029Q   23356.60148504  .00001267  00000-0  97663-4 0  9993,2 52102  53.2171 106.7686 0001309  92.0934 268.0208 15.08841601 98798,6917.875,95.437,540.646,538.835,0.0
52102.0,STARLINK-3709,PAYLOAD,2023-12-23 12:41:32,15.08845352,0.0001311,53.2166,102.6083,89.6812,270.433,1.7526e-05,-9e-08,0.0,0 STARLINK-3709,1 52102U 22029Q   23357.52884668 -.00000009  00000-0  17526-4 0  9997,2 52102  53.2166 102.6083 0001311  89.6812 270.4330 15.08845352 98934,6917.864,95.437,540.636,538.822,0.0
52102.0,STARLINK-3709,PAYLOAD,2023-12-24 12:32:19,15.08847019,0.0001345,53.2159,98.148,84.2155,275.8991,0.00012378,1.683e-05,0.0,0 STARLINK-3709,1 52102U 22029Q   23358.52244448  .00001683  00000-0  12378-3 0  9991,2 52102  53.2159  98.1480 0001345  84.2155 275.8991 15.08847019 99085,6917.859,95.437,540.654,538.793,0.0
52102.0,STARLINK-3709,PAYLOAD,2023-12-25 12:23:06,15.08840816,0.0001418,53.2159,93.6903,72.9646,287.1501,0.00010292,1.35e-05,0.0,0 STARLINK-3709,1 52102U 22029Q   23359.51604925  .00001350  00000-0  10292-3 0  9995,2 52102  53.2159  93.6903 0001418  72.9646 287.1501 15.08840816 99233,6917.878,95.438,540.724,538.762,0.0
52102.0,STARLINK-3709,PAYLOAD,2023-12-25 13:58:29,15.08844421,0.0001452,53.216,93.3907,78.9864,281.1291,9.785e-05,1.27e-05,0.0,0 STARLINK-3709,1 52102U 22029Q   23359.58228673  .00001270  00000-0  97850-4 0  9991,2 52102  53.2160  93.3907 0001452  78.9864 281.1291 15.08844421 99249,6917.867,95.437,540.736,538.727,0.0
52102.0,STARLINK-3709,PAYLOAD,2023-12-26 10:38:31,15.08837841,0.0001394,53.2166,89.5253,86.3844,273.7308,1.613e-05,-3.1e-07,0.0,0 STARLINK-3709,1 52102U 22029Q   23360.44341517 -.00000031  00000-0  16130-4 0  9998,2 52102  53.2166  89.5253 0001394  86.3844 273.7308 15.08837841 99370,6917.887,95.438,540.716,538.788,0.0
52102.0,STARLINK-3709,PAYLOAD,2023-12-26 13:49:17,15.08842903,0.000148,53.2169,88.9298,85.0696,275.0466,4.9622e-05,5.02e-06,0.0,0 STARLINK-3709,1 52102U 22029Q   23360.57589140  .00000502  00000-0  49622-4 0  9992,2 52102  53.2169  88.9298 0001480  85.0696 275.0466 15.08842903 99399,6917.872,95.437,540.76,538.713,0.0
52102.0,STARLINK-3709,PAYLOAD,2023-12-27 12:04:40,15.08847002,0.000143,53.2165,84.7674,88.0218,272.0938,9.0675e-05,1.156e-05,0.0,0 STARLINK-3709,1 52102U 22029Q   23361.50324957  .00001156  00000-0  90675-4 0  9999,2 52102  53.2165  84.7674 0001430  88.0218 272.0938 15.08847002 99537,6917.859,95.437,540.713,538.735,0.0
52102.0,STARLINK-3709,PAYLOAD,2023-12-28 11:55:28,15.08841572,0.0001505,53.2169,80.3065,80.246,279.8702,8.5842e-05,1.079e-05,0.0,0 STARLINK-3709,1 52102U 22029Q   23362.49685481  .00001079  00000-0  85842-4 0  9994,2 52102  53.2169  80.3065 0001505  80.2460 279.8702 15.08841572 99689,6917.876,95.437,540.782,538.699,0.0
52102.0,STARLINK-3709,PAYLOAD,2023-12-29 11:46:15,15.08839629,0.0001492,53.2164,75.8467,73.7969,286.3187,9.1138e-06,-1.43e-06,0.0,0 STARLINK-3709,1 52102U 22029Q   23363.49045801 -.00000143  00000-0  91138-5 0  9999,2 52102  53.2164  75.8467 0001492  73.7969 286.3187 15.08839629 99832,6917.882,95.438,540.779,538.714,0.0
52102.0,STARLINK-3709,PAYLOAD,2023-12-30 10:01:39,15.08839725,0.0001527,53.2167,71.6832,75.6768,284.4394,8.2308e-05,1.022e-05,0.0,0 STARLINK-3709,1 52102U 22029Q   23364.41781614  .00001022  00000-0  82308-4 0  9995,2 52102  53.2167  71.6832 0001527  75.6768 284.4394 15.08839725 99973,6917.881,95.438,540.803,538.69,0.0
52102.0,STARLINK-3709,PAYLOAD,2023-12-31 03:30:54,15.08833315,0.0001633,53.2166,68.4134,66.7957,293.3207,4.6093e-05,4.45e-06,0.0,0 STARLINK-3709,1 52102U 22029Q   23365.14646311  .00000445  00000-0  46093-4 0  9999,2 52102  53.2166  68.4134 0001633  66.7957 293.3207 15.08833315100086,6917.901,95.438,540.896,538.636,0.0
52102.0,STARLINK-3709,PAYLOAD,2023-12-31 11:27:50,15.08833432,0.0001449,53.2169,66.9248,86.5734,273.5424,2.9458e-05,1.81e-06,0.0,0 STARLINK-3709,1 52102U 22029Q   23365.47766431  .00000181  00000-0  29458-4 0  9994,2 52102  53.2169  66.9248 0001449  86.5734 273.5424 15.08833432100133,6917.9,95.438,540.768,538.763,0.0
52102.0,STARLINK-3709,PAYLOAD,2024-01-01 11:18:36,15.08842001,0.0001423,53.217,62.4645,89.5568,270.5587,3.7563e-05,3.1e-06,0.0,0 STARLINK-3709,1 52102U 22029Q   24001.47126059  .00000310  00000-0  37563-4 0  9998,2 52102  53.2170  62.4645 0001423  89.5568 270.5587 15.08842001100282,6917.874,95.437,540.724,538.755,0.0
52102.0,STARLINK-3709,PAYLOAD,2024-01-01 14:29:23,15.08843714,0.0001434,53.2169,61.8695,91.5928,268.5228,4.9727e-05,5.04e-06,0.0,0 STARLINK-3709,1 52102U 22029Q   24001.60373871  .00000504  00000-0  49727-4 0  9999,2 52102  53.2169  61.8695 0001434  91.5928 268.5228 15.08843714100307,6917.869,95.437,540.726,538.742,0.0
52102.0,STARLINK-3709,PAYLOAD,2024-01-01 22:26:19,15.08835042,0.0001415,53.2168,60.3821,93.4131,266.7023,6.1835e-05,6.96e-06,0.0,0 STARLINK-3709,1 52102U 22029Q   24001.93494412  .00000696  00000-0  61835-4 0  9996,2 52102  53.2168  60.3821 0001415  93.4131 266.7023 15.08835042100350,6917.896,95.438,540.739,538.782,0.0
52102.0,STARLINK-3709,PAYLOAD,2024-01-02 11:09:24,15.0883645,0.0001399,53.2168,58.0038,81.1371,278.978,5.8909e-05,6.5e-06,0.0,0 STARLINK-3709,1 52102U 22029Q   24002.46486512  .00000650  00000-0  58909-4 0  9995,2 52102  53.2168  58.0038 0001399  81.1371 278.9780 15.08836450100433,6917.891,95.438,540.724,538.788,0.0
52102.0,STARLINK-3709,PAYLOAD,2024-01-02 22:17:07,15.08827792,0.0001556,53.2168,55.9232,70.3955,289.7205,-3.2694e-05,-8.08e-06,0.0,0 STARLINK-3709,1 52102U 22029Q   24002.92855633 -.00000808  00000-0 -32694-4 0  9990,2 52102  53.2168  55.9232 0001556  70.3955 289.7205 15.08827792100507,6917.918,95.438,540.859,538.706,0.0
52102.0,STARLINK-3709,PAYLOAD,2024-01-03 11:00:11,15.08833957,0.0001867,53.2173,53.5482,27.5995,332.5096,9.1451e-05,1.167e-05,0.0,0 STARLINK-3709,1 52102U 22029Q   24003.45847177  .00001167  00000-0  91451-4 0  9996,2 52102  53.2173  53.5482 0001867  27.5995 332.5096 15.08833957100580,6917.899,95.438,541.055,538.472,0.0
52102.0,STARLINK-3709,PAYLOAD,2024-01-04 09:15:35,15.08844999,0.0001785,53.2174,49.3844,66.2636,293.8543,8.1527e-05,1.01e-05,0.0,0 STARLINK-3709,1 52102U 22029Q   24004.38582422  .00001010  00000-0  81527-4 0  9998,2 52102  53.2174  49.3844 0001785  66.2636 293.8543 15.08844999100727,6917.865,95.437,540.965,538.495,0.0
52102.0,STARLINK-3709,PAYLOAD,2024-01-04 12:26:20,15.0885591,0.0001602,53.2173,48.7859,77.6283,282.4888,1.7342e-05,-1.2e-07,0.0,0 STARLINK-3709,1 52102U 22029Q   24004.51829780 -.00000012  00000-0  17342-4 0  9990,2 52102  53.2173  48.7859 0001602  77.6283 282.4888 15.08855910100740,6917.832,95.437,540.805,538.589,0.0
52102.0,STARLINK-3709,PAYLOAD,2024-01-05 02:44:49,15.08837663,0.0001798,53.2174,46.1046,129.2623,230.8529,2.2873e-05,7.6e-07,0.0,0 STARLINK-3709,1 52102U 22029Q   24005.11446630  .00000076  00000-0  22873-4 0  9990,2 52102  53.2174  46.1046 0001798 129.2623 230.8529 15.08837663100833,6917.888,95.438,540.996,538.509,0.0
52102.0,STARLINK-3709,PAYLOAD,2024-01-05 09:06:22,15.08841734,0.0001864,53.2183,44.9161,127.0298,233.0865,5.9388e-05,6.57e-06,0.0,0 STARLINK-3709,1 52102U 22029Q   24005.37942293  .00000657  00000-0  59388-4 0  9990,2 52102  53.2183  44.9161 0001864 127.0298 233.0865 15.08841734100871,6917.875,95.437,541.03,538.451,0.0
52102.0,STARLINK-3709,PAYLOAD,2024-01-06 08:57:09,15.08843926,0.0001656,53.2176,40.4593,107.6671,252.4502,1.6197e-05,-3e-07,0.0,0 STARLINK-3709,1 52102U 22029Q   24006.37302330 -.00000030  00000-0  16197-4 0  9990,2 52102  53.2176  40.4593 0001656 107.6671 252.4502 15.08843926101027,6917.868,95.437,540.879,538.588,0.0
52102.0,STARLINK-3709,PAYLOAD,2024-01-07 02:26:24,15.08833875,0.000152,53.2176,37.1889,89.3913,270.7253,-2.6467e-06,-3.3e-06,0.0,0 STARLINK-3709,1 52102U 22029Q   24007.10167072 -.00000330  00000-0 -26467-5 0  9990,2 52102  53.2176  37.1889 0001520  89.3913 270.7253 15.08833875101133,6917.899,95.438,540.816,538.713,0.0
52102.0,STARLINK-3709,PAYLOAD,2024-01-07 08:47:56,15.08836345,0.0001928,53.2183,36.0033,100.7487,259.3722,3.1911e-05,2.2e-06,0.0,0 STARLINK-3709,1 52102U 22029Q   24007.36662899  .00000220  00000-0  31911-4 0  9990,2 52102  53.2183  36.0033 0001928 100.7487 259.3722 15.08836345101179,6917.892,95.438,541.09,538.423,0.0
52102.0,STARLINK-3709,PAYLOAD,2024-01-08 11:49:29,15.08846585,0.0001654,53.2177,30.9431,110.0378,250.0792,3.111e-05,2.07e-06,0.0,0 STARLINK-3709,1 52102U 22029Q   24008.49270240  .00000207  00000-0  31110-4 0  9996,2 52102  53.2177  30.9431 0001654 110.0378 250.0792 15.08846585101347,6917.86,95.437,540.869,538.581,0.0
